{
  "norad_id": 66303,
  "name": "STARCLOUD-1",
  "history": [
    {
      "epoch": "2026-03-28T16:40:35.433120Z",
      "apogee_km": 509.17213848380834,
      "perigee_km": 500.1292566952079,
      "latitude_deg": 6.458337864211664e-06,
      "longitude_deg": 115.92625259050637,
      "height_km": 502.5250906214678,
      "semi_major_axis_km": 6882.787697589508,
      "eccentricity": 0.00065692,
      "inclination_deg": 45.401,
      "raan_deg": 192.1855,
      "arg_perigee_deg": 298.7247,
      "mean_anomaly_deg": 61.2979,
      "mean_motion_rev_day": 15.2039419
    }
  ]
}